OBJECT_NAME,OBJECT_ID,EPOCH,MEAN_MOTION,ECCENTRICITY,INCLINATION,RA_OF_ASC_NODE,ARG_OF_PERICENTER,MEAN_ANOMALY,EPHEMERIS_TYPE,CLASSIFICATION_TYPE,NORAD_CAT_ID,ELEMENT_SET_NO,REV_AT_EPOCH,BSTAR,MEAN_MOTION_DOT,MEAN_MOTION_DDOT
D-STAR ONE (SPARROW),2018-111F,2026-06-25T09:17:59.625888,15.76905259,.0004763,97.6101,118.0203,130.1910,229.9773,0,U,43881,999,41266,.1266003E-2,.2085E-2,0
JILIN-1 09,2019-005B,2026-06-25T12:54:10.813824,15.20580887,.00036327,97.4741,271.4287,77.9233,282.2409,0,U,43943,999,41041,.26298664E-3,.5693E-4,0
JILIN-1 10,2019-005E,2026-06-25T12:30:34.521696,15.25804012,.00067991,97.4788,275.3255,242.9771,117.0774,0,U,43946,999,41058,.26205933E-3,.6629E-4,0
EGYPTSAT-A (MISRSAT-A),2019-008A,2026-06-25T15:19:18.724224,14.72317317,.00014803,98.0194,241.2864,98.9813,261.1562,0,U,44047,999,39448,.14290036E-3,.854E-5,0
EMISAT,2019-018A,2026-06-25T14:23:51.400608,14.43641617,.00181067,98.4646,235.3547,188.8707,171.2166,0,U,44078,999,38127,.14257232E-3,.44E-5,0
JILIN-1 GAOFEN 3A,2019-032C,2026-06-25T11:49:32.614176,15.32803819,.00059964,44.9760,311.2209,335.6906,24.3695,0,U,44312,999,38911,.42440967E-3,.13429E-3,0
WT 1B,2019-032G,2026-06-25T13:43:19.962912,15.27334736,.00101393,44.9714,15.1699,290.9589,69.0208,0,U,44316,999,38836,.53635143E-3,.1438E-3,0
PROX-1,2019-036A,2026-06-24T22:56:39.058368,14.90782401,.00058162,23.9955,62.3473,125.1076,234.9969,0,U,44339,999,37463,.15002248E-2,.15418E-3,0
NPSAT1,2019-036B,2026-06-25T07:19:58.811520,14.74641008,.00070026,23.9972,164.8807,303.1777,56.8047,0,U,44340,999,37369,.83755675E-3,.596E-4,0
FORMOSAT 7-3,2019-036E,2026-06-25T12:15:37.347552,15.09849246,.00008025,23.9980,121.2472,37.9989,322.0571,0,U,44343,999,38450,.24611848E-3,.4434E-4,0
FORMOSAT 7-1,2019-036L,2026-06-25T12:21:26.059680,14.96539069,.00004362,23.9990,336.2507,286.9970,73.0483,0,U,44349,999,38590,.19655877E-3,.2593E-4,0
FORMOSAT 7-4,2019-036M,2026-06-24T22:29:44.112768,14.96527255,.0000879,23.9990,42.2492,285.7480,74.2924,0,U,44350,999,38523,.18642732E-3,.2474E-4,0
FORMOSAT 7-2,2019-036N,2026-06-25T10:14:00.359520,14.96528896,.00003546,23.9982,93.2660,287.0479,72.9983,0,U,44351,999,38482,.18591223E-3,.2468E-4,0
FORMOSAT 7-6,2019-036Q,2026-06-25T13:25:34.786560,14.96543584,.00010095,23.9976,273.1878,177.3546,182.6961,0,U,44353,999,38307,.17872798E-3,.2385E-4,0
FORMOSAT 7-5,2019-036V,2026-06-25T09:40:45.979680,14.96545612,.00000519,23.9969,212.9889,143.3743,216.6762,0,U,44358,999,38358,.16407788E-3,.2214E-4,0
METEOR-M2 2,2019-038A,2026-06-25T14:29:42.118944,14.24367200,.00017607,98.9146,164.0134,35.4215,324.7080,0,U,44387,999,36249,-.22708088E-4,-.98E-6,0
COSMOS 2535,2019-039A,2026-06-25T14:13:51.190176,14.91958377,.00083589,97.5757,204.4348,173.5309,186.6020,0,U,44421,999,37789,.89716473E-4,.855E-5,0
GLOBAL-4,2019-054E,2026-06-25T12:06:29.447136,15.65103918,.00047885,45.0034,188.3824,29.9656,330.1514,0,U,44499,999,38166,.55662846E-3,.56303E-3,0
ZY-1 02D,2019-059A,2026-06-25T15:25:14.345760,14.35264040,.00042732,98.6725,238.1028,5.9949,354.1287,0,U,44528,999,35555,.18798307E-3,.493E-5,0
TAURUS-1 (JINNIUZUO 1),2019-059C,2026-06-25T14:28:15.051072,14.72170947,.00072449,98.6418,341.9535,285.3671,74.6734,0,U,44530,999,35988,.10124411E-2,.6331E-4,0
ZHUHAI-1 03B,2019-060C,2026-06-25T14:48:39.434112,15.54532656,.00074553,97.5530,334.8400,282.3821,77.6598,0,U,44536,999,37763,.53919341E-3,.35579E-3,0
ZHUHAI-1 03D,2019-060E,2026-06-25T13:14:50.863776,15.50201867,.00066471,97.5388,326.8203,265.6161,94.4331,0,U,44538,999,37737,.64869285E-3,.36662E-3,0
ZHUHAI-1 03E,2019-060F,2026-06-25T13:18:05.598144,15.41315164,.00051781,97.5613,326.7931,3.1205,357.0073,0,U,44539,999,37705,.48868524E-3,.2031E-3,0
ATLAS 5 CENTAUR DEB,2018-079BG,2026-06-24T00:40:57.510624,1.77422668,.47197289,13.6318,38.7218,300.3166,21.2593,0,U,44694,999,4668,0,-.104E-5,0
GAOFEN-7,2019-072A,2026-06-25T14:50:18.667968,15.21320453,.00179482,97.2429,237.7667,12.9262,347.2431,0,U,44703,999,36892,.19085406E-3,.4222E-4,0
JILIN-1 GAOFEN 2A,2019-075A,2026-06-25T12:29:22.528032,15.39521526,.00070083,97.4968,260.5056,62.7616,297.4343,0,U,44777,999,36616,.45031314E-3,.17634E-3,0
NINGXIA-1 1,2019-076A,2026-06-25T14:09:34.882848,14.02039376,.00111681,45.0043,142.3002,203.0451,156.9883,0,U,44779,999,33903,.42606703E-4,-.64E-6,0
NINGXIA-1 5,2019-076E,2026-06-25T14:28:18.539040,14.02087206,.00106253,45.0038,141.5802,193.7376,166.3170,0,U,44783,999,33895,.72653645E-4,-.18E-6,0
KL-ALPHA A,2019-077A,2026-06-25T14:32:25.211040,13.56043830,.00133736,88.9249,221.6443,85.5370,274.7312,0,U,44785,999,32687,.12929003E-3,.103E-5,0
CARTOSAT-3,2019-081A,2026-06-25T14:06:17.609184,15.19193664,.00132699,97.4306,238.3198,121.6536,238.5995,0,U,44804,999,36474,.22382614E-3,.4652E-4,0
JILIN-1 GAOFEN 2B,2019-086A,2026-06-25T12:05:18.198240,15.20792685,.00124288,97.4883,248.4424,291.9184,68.0730,0,U,44836,999,36175,.31668029E-3,.6925E-4,0
TIANQIN 1 (CAS-6),2019-093A,2026-06-25T15:41:31.075296,14.95477854,.00119591,97.7811,260.4332,33.6715,326.5264,0,U,44879,999,35331,.52419365E-3,.5753E-4,0
ETRSS-1,2019-093B,2026-06-25T14:11:28.550688,14.95912554,.00121797,97.7831,260.8378,34.2232,325.9772,0,U,44880,999,35331,.36052854E-3,.3982E-4,0
TIANYAN 01,2019-093C,2026-06-25T14:14:31.441344,14.86529547,.0014983,97.7532,248.6208,61.9308,298.3421,0,U,44881,999,35266,.31326618E-4,.224E-5,0
TIANYAN 02,2019-093D,2026-06-25T13:29:00.697632,15.05310212,.00132743,97.7926,271.4322,359.8696,0.2525,0,U,44882,999,35387,.53675126E-3,.7634E-4,0
CBERS 4A,2019-093E,2026-06-25T14:24:25.501824,14.81410549,.00004252,98.0192,244.0480,88.7933,271.3328,0,U,44883,999,35232,.10726743E-3,.786E-5,0
WEILAI 1R,2019-093F,2026-06-25T14:08:42.992736,15.00712096,.00176676,97.7864,266.4884,11.2730,348.8886,0,U,44884,999,35368,.50233541E-3,.6325E-4,0
FLORIPASAT-1,2019-093G,2026-06-25T14:36:44.362656,15.03960935,.00121601,97.7923,270.8997,45.3584,314.8630,0,U,44885,999,35391,.59786423E-3,.8206E-4,0
SHUNTIAN,2019-093H,2026-06-25T13:45:47.204928,14.95193582,.00124252,97.8006,264.6914,42.1787,318.0387,0,U,44886,999,35343,.37415893E-3,.4059E-4,0
2019-093L,2019-093L,2026-06-25T13:20:49.841952,14.94574833,.00123648,97.7550,254.7181,29.6835,330.5084,0,U,44889,999,35305,.3905715E-3,.4174E-4,0
ELEKTRO-L 3,2019-095A,2026-06-25T12:57:41.181408,1.00272434,.00014742,0.2788,81.9476,1.4071,100.7106,0,U,44903,999,2379,0,-.86E-6,0
GONETS-M 14,2019-096A,2026-06-25T15:52:33.949920,12.42869879,.00138771,82.5234,79.3868,130.1143,230.1155,0,U,44905,999,29473,-.64764637E-3,-.8E-6,0
GONETS-M 15,2019-096B,2026-06-25T14:38:58.428672,12.42871712,.00152934,82.5253,79.8814,153.0283,207.1595,0,U,44906,999,29469,-.46096021E-4,.4E-7,0
GONETS-M 16,2019-096C,2026-06-25T15:16:31.172160,12.42891924,.0010107,82.5199,78.8135,194.6593,165.4195,0,U,44907,999,29468,-.47919168E-4,.3E-7,0
RS-44 & BREEZE-KM R/B,2019-096E,2026-06-25T12:38:48.219936,12.79748967,.02184431,82.5224,334.1623,124.7433,237.4451,0,U,44909,999,30341,.43498583E-4,.24E-6,0
JILIN-1 KUANFU 01,2020-003A,2026-06-25T11:57:59.992992,15.10763632,.00081581,97.5027,250.2916,273.6219,86.4078,0,U,45016,999,35658,.22069414E-3,.36E-4,0
XINGYUN-2 01,2020-028A,2026-06-25T14:44:09.959424,15.11834783,.000937,97.4864,168.8476,163.3247,196.8293,0,U,45602,999,33611,.75649495E-4,.123E-4,0
XINGYUN-2 02,2020-028B,2026-06-25T14:15:31.440960,15.11565388,.00091974,97.5073,182.4377,237.7663,122.2677,0,U,45603,999,33610,.60844034E-4,.969E-5,0
HAIYANG-1D,2020-036A,2026-06-25T13:18:20.495232,14.34175062,.00037896,98.4550,118.0517,109.9523,250.2070,0,U,45721,999,31617,-.6372029E-5,-.61E-6,0
M2 PATHFINDER,2020-037E,2026-06-25T11:49:06.682080,15.04704429,.00125944,97.8138,7.8170,122.0421,238.2030,0,U,45727,999,32674,.17753127E-3,.2439E-4,0
GAOFEN DUOMO (GFDM),2020-042A,2026-06-25T14:36:22.544064,14.76892044,.00122032,97.7746,236.1887,50.8379,309.3914,0,U,45856,999,32225,.17848828E-3,.1207E-4,0
ZIYUAN 3-03 (ZY 3-03),2020-051A,2026-06-25T14:29:04.101216,15.21320050,.00022247,97.2834,244.0572,302.2329,57.8691,0,U,45939,999,32862,.3328735E-3,.7386E-4,0
NEMO-HD,2020-061F,2026-06-25T14:47:12.810336,15.44753636,.00018774,97.1922,238.4841,74.9430,285.2027,0,U,46277,999,32328,.27859433E-3,.12945E-3,0
3CAT-5A,2020-061W,2026-06-25T03:16:26.957568,15.46327347,.00032389,97.2409,239.0200,101.9839,258.1774,0,U,46292,999,32225,.40150482E-3,.19744E-3,0
3CAT-5B,2020-061X,2026-06-25T12:00:59.578848,15.47741603,.0003397,97.2401,240.3829,100.7677,259.3956,0,U,46293,999,32234,.42122659E-3,.2176E-3,0
NAPA-1,2020-061BA,2026-06-25T14:01:03.110592,15.69076578,.00016933,97.2462,251.0447,177.0030,183.1243,0,U,46320,999,32305,.74965306E-3,.87234E-3,0
JILIN-1 GAOFEN 3E,2020-065D,2026-06-25T12:56:17.792448,15.64613674,.00127601,97.2241,229.3460,131.4939,228.7418,0,U,46457,999,32106,.83585778E-3,.81574E-3,0
JILIN-1 GAOFEN 3F,2020-065E,2026-06-25T12:21:26.610048,15.61740335,.00142325,97.2200,226.6162,120.4414,239.8252,0,U,46458,999,32100,.79903749E-3,.69671E-3,0
JILIN-1 GAOFEN 3G,2020-065F,2026-06-25T11:41:33.553824,15.72713856,.00062829,97.2262,233.5336,31.7180,328.4461,0,U,46459,999,32124,.89968787E-3,.122453E-2,0
JILIN-1 GAOFEN 3H,2020-065G,2026-06-25T12:59:51.389664,15.68968895,.00033502,97.2207,229.8660,293.4947,66.5963,0,U,46460,999,32119,.84300858E-3,.97822E-3,0
HAIYANG-2C,2020-066A,2026-06-25T14:58:56.163360,13.83376621,.00085875,65.9957,194.2774,237.6980,122.3258,0,U,46469,999,29066,.14369599E-3,.77E-6,0
HJ-2A,2020-067A,2026-06-25T15:16:07.241952,14.76524521,.00025357,97.8827,254.8092,224.1883,135.9125,0,U,46478,999,30950,.74277711E-4,.468E-5,0
HJ-2B,2020-067B,2026-06-25T14:31:18.045408,14.76568992,.00014844,97.8891,255.8074,101.1286,259.0091,0,U,46479,999,30950,.14525779E-3,.964E-5,0
GONETS-M 17,2020-068A,2026-06-25T13:56:55.246272,12.42873479,.00227418,82.4994,342.2799,19.7055,340.4898,0,U,46486,999,26020,.41498738E-3,.67E-6,0
GONETS-M 18,2020-068B,2026-06-25T13:04:34.971744,12.42873933,.00199644,82.4948,341.4172,16.5253,343.6474,0,U,46487,999,26018,.16223548E-3,.32E-6,0
